LEMUR-2-ANDIS           
1 42838U 17042P   26068.55941107  .00023598  00000+0  79875-3 0  9998
2 42838  97.3659 249.7950 0009101   4.3248 355.8070 15.30557934473198
STARLINK-34871          
1 65217U 25176V   26068.55394321  .00025134  00000+0  85814-3 0  9999
2 65217  53.1607 153.0749 0001631  54.5475 305.5678 15.30188645 33107
