[{"OBJECT_NAME":"LEMUR-2-ANDIS","OBJECT_ID":"2017-042P","EPOCH":"2026-03-09T13:25:33.116448","MEAN_MOTION":15.30557934,"ECCENTRICITY":0.0009101,"INCLINATION":97.3659,"RA_OF_ASC_NODE":249.795,"ARG_OF_PERICENTER":4.3248,"MEAN_ANOMALY":355.807,"EPHEMERIS_TYPE":0,"CLASSIFICATION_TYPE":"U","NORAD_CAT_ID":42838,"ELEMENT_SET_NO":999,"REV_AT_EPOCH":47319,"BSTAR":0.00079875,"MEAN_MOTION_DOT":0.00023598,"MEAN_MOTION_DDOT":0},{"OBJECT_NAME":"STARLINK-34871","OBJECT_ID":"2025-176V","EPOCH":"2026-03-09T13:17:40.693344","MEAN_MOTION":15.30188645,"ECCENTRICITY":0.0001631,"INCLINATION":53.1607,"RA_OF_ASC_NODE":153.0749,"ARG_OF_PERICENTER":54.5475,"MEAN_ANOMALY":305.5678,"EPHEMERIS_TYPE":0,"CLASSIFICATION_TYPE":"U","NORAD_CAT_ID":65217,"ELEMENT_SET_NO":999,"REV_AT_EPOCH":3310,"BSTAR":0.00085814,"MEAN_MOTION_DOT":0.00025134,"MEAN_MOTION_DDOT":0}]
